COSMOS 2251 DEB         
1 34819U 93036ABJ 17345.68173269  .00000583  00000-0  18636-3 0  9991
2 34819  74.0251 206.4221 0025806 285.2100 132.0392 14.41685028459582
